[{"CCSDS_OMM_VERS":"2.0","COMMENT":"GENERATED VIA SPACE-TRACK.ORG API","CREATION_DATE":"2021-09-14T20:15:51","ORIGINATOR":"18 SPCS","OBJECT_NAME":"GALILEO-FM3","OBJECT_ID":"2012-055A","CENTER_NAME":"EARTH","REF_FRAME":"TEME","TIME_SYSTEM":"UTC","MEAN_ELEMENT_THEORY":"SGP4","EPOCH":"2021-09-14T00:14:43.074528","MEAN_MOTION":"1.70473709","ECCENTRICITY":"0.00024530","INCLINATION":"55.0622","RA_OF_ASC_NODE":"149.3028","ARG_OF_PERICENTER":"266.5824","MEAN_ANOMALY":"93.4525","EPHEMERIS_TYPE":"0","CLASSIFICATION_TYPE":"U","NORAD_CAT_ID":"38857","ELEMENT_SET_NO":"999","REV_AT_EPOCH":"5539","BSTAR":"0.00000000000000","MEAN_MOTION_DOT":"-0.00000013","MEAN_MOTION_DDOT":"0.0000000000000","SEMIMAJOR_AXIS":"29600.354","PERIOD":"844.705","APOAPSIS":"23229.480","PERIAPSIS":"23214.958","OBJECT_TYPE":"PAYLOAD","RCS_SIZE":"LARGE","COUNTRY_CODE":"ESA","LAUNCH_DATE":"2012-10-12","SITE":"FRGUI","DECAY_DATE":null,"FILE":"3115492","GP_ID":"184690229","TLE_LINE0":"0 GALILEO-FM3","TLE_LINE1":"1 38857U 12055A   21257.01022077 -.00000013  00000-0  00000-0 0  9995","TLE_LINE2":"2 38857  55.0622 149.3028 0002453 266.5824  93.4525  1.70473709 55395"},{"CCSDS_OMM_VERS":"2.0","COMMENT":"GENERATED VIA SPACE-TRACK.ORG API","CREATION_DATE":"2021-09-15T18:03:55","ORIGINATOR":"18 SPCS","OBJECT_NAME":"GALILEO-FM3","OBJECT_ID":"2012-055A","CENTER_NAME":"EARTH","REF_FRAME":"TEME","TIME_SYSTEM":"UTC","MEAN_ELEMENT_THEORY":"SGP4","EPOCH":"2021-09-15T04:24:04.485600","MEAN_MOTION":"1.70473715","ECCENTRICITY":"0.00024120","INCLINATION":"55.0624","RA_OF_ASC_NODE":"149.2704","ARG_OF_PERICENTER":"266.0232","MEAN_ANOMALY":"94.0098","EPHEMERIS_TYPE":"0","CLASSIFICATION_TYPE":"U","NORAD_CAT_ID":"38857","ELEMENT_SET_NO":"999","REV_AT_EPOCH":"5541","BSTAR":"0.00000000000000","MEAN_MOTION_DOT":"-0.00000018","MEAN_MOTION_DDOT":"0.0000000000000","SEMIMAJOR_AXIS":"29600.353","PERIOD":"844.705","APOAPSIS":"23229.358","PERIAPSIS":"23215.078","OBJECT_TYPE":"PAYLOAD","RCS_SIZE":"LARGE","COUNTRY_CODE":"ESA","LAUNCH_DATE":"2012-10-12","SITE":"FRGUI","DECAY_DATE":null,"FILE":"3116289","GP_ID":"184752927","TLE_LINE0":"0 GALILEO-FM3","TLE_LINE1":"1 38857U 12055A   21258.18338525 -.00000018  00000-0  00000-0 0  9997","TLE_LINE2":"2 38857  55.0624 149.2704 0002412 266.0232  94.0098  1.70473715 55412"},{"CCSDS_OMM_VERS":"2.0","COMMENT":"GENERATED VIA SPACE-TRACK.ORG API","CREATION_DATE":"2021-09-15T14:36:11","ORIGINATOR":"18 SPCS","OBJECT_NAME":"GALILEO-FM3","OBJECT_ID":"2012-055A","CENTER_NAME":"EARTH","REF_FRAME":"TEME","TIME_SYSTEM":"UTC","MEAN_ELEMENT_THEORY":"SGP4","EPOCH":"2021-09-15T04:24:04.491648","MEAN_MOTION":"1.70473710","ECCENTRICITY":"0.00024200","INCLINATION":"55.0624","RA_OF_ASC_NODE":"149.2704","ARG_OF_PERICENTER":"266.2213","MEAN_ANOMALY":"93.8115","EPHEMERIS_TYPE":"0","CLASSIFICATION_TYPE":"U","NORAD_CAT_ID":"38857","ELEMENT_SET_NO":"999","REV_AT_EPOCH":"5555","BSTAR":"0.00000000000000","MEAN_MOTION_DOT":"-0.00000018","MEAN_MOTION_DDOT":"0.0000000000000","SEMIMAJOR_AXIS":"29600.354","PERIOD":"844.705","APOAPSIS":"23229.382","PERIAPSIS":"23215.055","OBJECT_TYPE":"PAYLOAD","RCS_SIZE":"LARGE","COUNTRY_CODE":"ESA","LAUNCH_DATE":"2012-10-12","SITE":"FRGUI","DECAY_DATE":null,"FILE":"3116080","GP_ID":"184732198","TLE_LINE0":"0 GALILEO-FM3","TLE_LINE1":"1 38857U 12055A   21258.18338532 -.00000018  00000-0  00000+0 0  9994","TLE_LINE2":"2 38857  55.0624 149.2704 0002420 266.2213  93.8115  1.70473710 55559"},{"CCSDS_OMM_VERS":"2.0","COMMENT":"GENERATED VIA SPACE-TRACK.ORG API","CREATION_DATE":"2021-09-16T19:09:29","ORIGINATOR":"18 SPCS","OBJECT_NAME":"GALILEO-FM3","OBJECT_ID":"2012-055A","CENTER_NAME":"EARTH","REF_FRAME":"TEME","TIME_SYSTEM":"UTC","MEAN_ELEMENT_THEORY":"SGP4","EPOCH":"2021-09-15T18:28:45.382944","MEAN_MOTION":"1.70473723","ECCENTRICITY":"0.00023950","INCLINATION":"55.0625","RA_OF_ASC_NODE":"149.2543","ARG_OF_PERICENTER":"265.8276","MEAN_ANOMALY":"94.2057","EPHEMERIS_TYPE":"0","CLASSIFICATION_TYPE":"U","NORAD_CAT_ID":"38857","ELEMENT_SET_NO":"999","REV_AT_EPOCH":"5542","BSTAR":"0.00000000000000","MEAN_MOTION_DOT":"-0.00000019","MEAN_MOTION_DDOT":"0.0000000000000","SEMIMAJOR_AXIS":"29600.352","PERIOD":"844.705","APOAPSIS":"23229.306","PERIAPSIS":"23215.128","OBJECT_TYPE":"PAYLOAD","RCS_SIZE":"LARGE","COUNTRY_CODE":"ESA","LAUNCH_DATE":"2012-10-12","SITE":"FRGUI","DECAY_DATE":null,"FILE":"3117121","GP_ID":"184815411","TLE_LINE0":"0 GALILEO-FM3","TLE_LINE1":"1 38857U 12055A   21258.76996971 -.00000019  00000-0  00000-0 0  9997","TLE_LINE2":"2 38857  55.0625 149.2543 0002395 265.8276  94.2057  1.70473723 55426"},{"CCSDS_OMM_VERS":"2.0","COMMENT":"GENERATED VIA SPACE-TRACK.ORG API","CREATION_DATE":"2021-09-17T17:25:16","ORIGINATOR":"18 SPCS","OBJECT_NAME":"GALILEO-FM3","OBJECT_ID":"2012-055A","CENTER_NAME":"EARTH","REF_FRAME":"TEME","TIME_SYSTEM":"UTC","MEAN_ELEMENT_THEORY":"SGP4","EPOCH":"2021-09-16T22:38:07.613088","MEAN_MOTION":"1.70473738","ECCENTRICITY":"0.00023580","INCLINATION":"55.0627","RA_OF_ASC_NODE":"149.2220","ARG_OF_PERICENTER":"265.4235","MEAN_ANOMALY":"94.6136","EPHEMERIS_TYPE":"0","CLASSIFICATION_TYPE":"U","NORAD_CAT_ID":"38857","ELEMENT_SET_NO":"999","REV_AT_EPOCH":"5544","BSTAR":"0.00000000000000","MEAN_MOTION_DOT":"-0.00000017","MEAN_MOTION_DDOT":"0.0000000000000","SEMIMAJOR_AXIS":"29600.350","PERIOD":"844.705","APOAPSIS":"23229.195","PERIAPSIS":"23215.236","OBJECT_TYPE":"PAYLOAD","RCS_SIZE":"LARGE","COUNTRY_CODE":"ESA","LAUNCH_DATE":"2012-10-12","SITE":"FRGUI","DECAY_DATE":null,"FILE":"3117657","GP_ID":"184873360","TLE_LINE0":"0 GALILEO-FM3","TLE_LINE1":"1 38857U 12055A   21259.94314367 -.00000017  00000-0  00000-0 0  9999","TLE_LINE2":"2 38857  55.0627 149.2220 0002358 265.4235  94.6136  1.70473738 55440"},{"CCSDS_OMM_VERS":"2.0","COMMENT":"GENERATED VIA SPACE-TRACK.ORG API","CREATION_DATE":"2021-09-18T17:53:53","ORIGINATOR":"18 SPCS","OBJECT_NAME":"GALILEO-FM3","OBJECT_ID":"2012-055A","CENTER_NAME":"EARTH","REF_FRAME":"TEME","TIME_SYSTEM":"UTC","MEAN_ELEMENT_THEORY":"SGP4","EPOCH":"2021-09-18T02:47:30.297696","MEAN_MOTION":"1.70473761","ECCENTRICITY":"0.00023190","INCLINATION":"55.0630","RA_OF_ASC_NODE":"149.1897","ARG_OF_PERICENTER":"264.9893","MEAN_ANOMALY":"95.0549","EPHEMERIS_TYPE":"0","CLASSIFICATION_TYPE":"U","NORAD_CAT_ID":"38857","ELEMENT_SET_NO":"999","REV_AT_EPOCH":"5546","BSTAR":"0.00000000000000","MEAN_MOTION_DOT":"-0.00000011","MEAN_MOTION_DDOT":"0.0000000000000","SEMIMAJOR_AXIS":"29600.348","PERIOD":"844.705","APOAPSIS":"23229.077","PERIAPSIS":"23215.348","OBJECT_TYPE":"PAYLOAD","RCS_SIZE":"LARGE","COUNTRY_CODE":"ESA","LAUNCH_DATE":"2012-10-12","SITE":"FRGUI","DECAY_DATE":null,"FILE":"3118594","GP_ID":"184939898","TLE_LINE0":"0 GALILEO-FM3","TLE_LINE1":"1 38857U 12055A   21261.11632289 -.00000011  00000-0  00000-0 0  9991","TLE_LINE2":"2 38857  55.0630 149.1897 0002319 264.9893  95.0549  1.70473761 55465"},{"CCSDS_OMM_VERS":"2.0","COMMENT":"GENERATED VIA SPACE-TRACK.ORG API","CREATION_DATE":"2021-09-18T14:26:12","ORIGINATOR":"18 SPCS","OBJECT_NAME":"GALILEO-FM3","OBJECT_ID":"2012-055A","CENTER_NAME":"EARTH","REF_FRAME":"TEME","TIME_SYSTEM":"UTC","MEAN_ELEMENT_THEORY":"SGP4","EPOCH":"2021-09-18T02:47:30.297696","MEAN_MOTION":"1.70473761","ECCENTRICITY":"0.00023190","INCLINATION":"55.0630","RA_OF_ASC_NODE":"149.1897","ARG_OF_PERICENTER":"264.9893","MEAN_ANOMALY":"95.0549","EPHEMERIS_TYPE":"0","CLASSIFICATION_TYPE":"U","NORAD_CAT_ID":"38857","ELEMENT_SET_NO":"999","REV_AT_EPOCH":"5560","BSTAR":"0.00000000000000","MEAN_MOTION_DOT":"-0.00000011","MEAN_MOTION_DDOT":"0.0000000000000","SEMIMAJOR_AXIS":"29600.348","PERIOD":"844.705","APOAPSIS":"23229.077","PERIAPSIS":"23215.348","OBJECT_TYPE":"PAYLOAD","RCS_SIZE":"LARGE","COUNTRY_CODE":"ESA","LAUNCH_DATE":"2012-10-12","SITE":"FRGUI","DECAY_DATE":null,"FILE":"3118449","GP_ID":"184920587","TLE_LINE0":"0 GALILEO-FM3","TLE_LINE1":"1 38857U 12055A   21261.11632289 -.00000011  00000-0  00000+0 0  9990","TLE_LINE2":"2 38857  55.0630 149.1897 0002319 264.9893  95.0549  1.70473761 55601"},{"CCSDS_OMM_VERS":"2.0","COMMENT":"GENERATED VIA SPACE-TRACK.ORG API","CREATION_DATE":"2021-09-20T17:37:39","ORIGINATOR":"18 SPCS","OBJECT_NAME":"GALILEO-FM3","OBJECT_ID":"2012-055A","CENTER_NAME":"EARTH","REF_FRAME":"TEME","TIME_SYSTEM":"UTC","MEAN_ELEMENT_THEORY":"SGP4","EPOCH":"2021-09-19T21:01:34.640832","MEAN_MOTION":"1.70473797","ECCENTRICITY":"0.00022560","INCLINATION":"55.0634","RA_OF_ASC_NODE":"149.1413","ARG_OF_PERICENTER":"264.3352","MEAN_ANOMALY":"95.7219","EPHEMERIS_TYPE":"0","CLASSIFICATION_TYPE":"U","NORAD_CAT_ID":"38857","ELEMENT_SET_NO":"999","REV_AT_EPOCH":"5549","BSTAR":"0.00000000000000","MEAN_MOTION_DOT":"-0.00000001","MEAN_MOTION_DDOT":"0.0000000000000","SEMIMAJOR_AXIS":"29600.344","PERIOD":"844.705","APOAPSIS":"23228.886","PERIAPSIS":"23215.531","OBJECT_TYPE":"PAYLOAD","RCS_SIZE":"LARGE","COUNTRY_CODE":"ESA","LAUNCH_DATE":"2012-10-12","SITE":"FRGUI","DECAY_DATE":null,"FILE":"3121163","GP_ID":"185090517","TLE_LINE0":"0 GALILEO-FM3","TLE_LINE1":"1 38857U 12055A   21262.87609538 -.00000001  00000-0  00000-0 0  9995","TLE_LINE2":"2 38857  55.0634 149.1413 0002256 264.3352  95.7219  1.70473797 55490"}]